STARLINK-34221          
1 64453U 25130R   25209.82328919  .00025224  00000+0  63821-3 0  9990
2 64453  53.1607  54.3735 0000855  82.7733 277.3370 15.39633891  7588
STARLINK-34282          
1 64454U 25130S   25209.97263934  .00043944  00000+0  95475-3 0  9991
2 64454  53.1623  53.1710 0001029  18.0961 342.0082 15.43939884  7447
STARLINK-34295          
1 64455U 25130T   25209.86498373  .00033976  00000+0  85518-3 0  9998
2 64455  53.1598  53.9189 0001076  57.2614 302.8495 15.39635287  7581
STARLINK-34430          
1 64456U 25130U   25209.86034140  .00026454  00000+0  66869-3 0  9998
2 64456  53.1595  53.8878 0001131  53.0512 307.0597 15.39636093  7571
STARLINK-34445          
1 64457U 25130V   25209.98129218 -.01831075  00000+0 -55318-1 0  9994
2 64457  53.1600  53.2245 0002172 178.3534 181.7477 15.37068659  7605
STARLINK-34439          
1 64458U 25130W   25209.84640877  .00027497  00000+0  69467-3 0  9993
2 64458  53.1605  53.8034 0001150  81.4500 278.6636 15.39631474  7566
STARLINK-34421          
1 64459U 25130X   25209.84176713  .00034108  00000+0  85843-3 0  9990
2 64459  53.1608  53.7752 0001063  87.0466 273.0661 15.39635748  7567
STARLINK-34423          
1 64460U 25130Y   25209.83712319  .00051631  00000+0  12918-2 0  9991
2 64460  53.1611  53.7450 0000995  62.6840 297.4266 15.39625511  7586
STARLINK-34418          
1 64461U 25130Z   25209.83248048  .00044062  00000+0  11045-2 0  9995
2 64461  53.1612  53.7154 0001017  74.5066 285.6051 15.39638742  7566
STARLINK-34336          
1 64462U 25130AA  25210.25002315 -.01596085  00000+0 -48818-1 0  9996
2 64462  53.1599  48.9915 0001618  80.6312 358.9185 15.36781513  7699
STARLINK-34400          
1 64463U 25130AB  25209.85729751  .00030226  00000+0  54885-3 0  9991
2 64463  53.1604  53.1567 0000352 307.3263  52.7714 15.49337841  7586
STARLINK-34429          
1 64464U 25130AC  25210.25002315 -.00003701  00000+0 -82615-4 0  9991
2 64464  53.1603  51.5940 0001238  85.1271 147.8495 15.39608542  7633
STARLINK-34449          
1 64465U 25130AD  25210.25002315 -.01604381  00000+0 -38062-1 0  9998
2 64465  53.1602  51.3093 0001160  97.3837 278.4781 15.44408018  7649
STARLINK-34493          
1 64472U 25133A   25209.96512308  .00061857  00000+0  15433-2 0  9993
2 64472  53.1589  83.9065 0000805  83.2982 276.8115 15.39631583  6822
STARLINK-34492          
1 64473U 25133B   25210.02572862  .00042585  00000+0  10685-2 0  9995
2 64473  53.1586  83.5737 0000956  95.7202 264.3912 15.39625004  6831
STARLINK-34474          
1 64474U 25133C   25209.96048103  .00018495  00000+0  47100-3 0  9999
2 64474  53.1587  83.8749 0001141  91.0478 269.0658 15.39634378  6800
STARLINK-34523          
1 64475U 25133D   25210.08600082  .00053907  00000+0  13472-2 0  9996
2 64475  53.1586  83.2375 0001166  79.0773 281.0363 15.39641460  6829
STARLINK-34496          
1 64476U 25133E   25210.08566387  .00026933  00000+0  68036-3 0  9992
2 64476  53.1578  83.2362 0000654 357.1694   2.9307 15.39645710  6842
STARLINK-34375          
1 64477U 25133F   25210.08135649  .00033268  00000+0  83735-3 0  9998
2 64477  53.1589  83.2074 0001190  62.5193 297.5933 15.39645144  6839
STARLINK-34490          
1 64478U 25133G   25209.81706961  .00057263  00000+0  14288-2 0  9996
2 64478  53.1582  84.4007 0000750 122.4129 237.6948 15.39663275  6799
STARLINK-34528          
1 64479U 25133H   25210.08101955  .00053066  00000+0  13266-2 0  9992
2 64479  53.1585  83.2050 0001004  90.8170 269.2950 15.39638719  6817
STARLINK-34518          
1 64480U 25133J   25210.07674804 -.01519737  00000+0 -45109-1 0  9996
2 64480  53.1581  83.1788 0008464 160.9825 199.1497 15.37452856  6670
STARLINK-34526          
1 64481U 25133K   25209.81241226  .00028298  00000+0  71439-3 0  9996
2 64481  53.1593  84.3680 0001012  69.6400 290.4713 15.39637264  6681
STARLINK-34527          
1 64482U 25133L   25209.94190363  .00031178  00000+0  78569-3 0  9998
2 64482  53.1583  83.7553 0000979  72.3275 287.7837 15.39641456  6814
STARLINK-34420          
1 64483U 25133M   25209.93759607  .00045032  00000+0  11287-2 0  9997
2 64483  53.1585  83.7279 0001134  75.3246 284.7884 15.39631900  6819
STARLINK-34509          
1 64484U 25133N   25209.93726030  .00029596  00000+0  74643-3 0  9995
2 64484  53.1583  83.7262 0000987  82.6084 277.5033 15.39643290  6817
STARLINK-34409          
1 64485U 25133P   25209.80313377  .00041094  00000+0  10309-2 0  9993
2 64485  53.1588  84.3114 0000729  95.4597 264.6491 15.39646311  6790
STARLINK-34520          
1 64486U 25133Q   25209.93261728  .00021837  00000+0  55419-3 0  9995
2 64486  53.1589  83.6969 0001165  71.0457 289.0674 15.39627736  6819
STARLINK-34477          
1 64487U 25133R   25209.92831114  .00056606  00000+0  14143-2 0  9997
2 64487  53.1591  83.6690 0001109  81.0895 279.0236 15.39627344  6817
STARLINK-34217          
1 64488U 25133S   25210.05780253  .00049338  00000+0  12345-2 0  9997
2 64488  53.1589  83.0538 0000958  77.2222 282.8890 15.39643718  6723
