OBJECT_NAME,OBJECT_ID,EPOCH,MEAN_MOTION,ECCENTRICITY,INCLINATION,RA_OF_ASC_NODE,ARG_OF_PERICENTER,MEAN_ANOMALY,EPHEMERIS_TYPE,CLASSIFICATION_TYPE,NORAD_CAT_ID,ELEMENT_SET_NO,REV_AT_EPOCH,BSTAR,MEAN_MOTION_DOT,MEAN_MOTION_DDOT
STARLINK-34221,2025-130R,2025-07-28T19:45:32.186016,15.39633891,.0000855,53.1607,54.3735,82.7733,277.3370,0,U,64453,999,758,.63821E-3,.25224E-3,0
STARLINK-34282,2025-130S,2025-07-28T23:20:36.038976,15.43939884,.0001029,53.1623,53.1710,18.0961,342.0082,0,U,64454,999,744,.95475E-3,.43944E-3,0
STARLINK-34295,2025-130T,2025-07-28T20:45:34.594272,15.39635287,.0001076,53.1598,53.9189,57.2614,302.8495,0,U,64455,999,758,.85518E-3,.33976E-3,0
STARLINK-34430,2025-130U,2025-07-28T20:38:53.496960,15.39636093,.0001131,53.1595,53.8878,53.0512,307.0597,0,U,64456,999,757,.66869E-3,.26454E-3,0
STARLINK-34445,2025-130V,2025-07-28T23:33:03.644352,15.37068659,.0002172,53.1600,53.2245,178.3534,181.7477,0,U,64457,999,760,-.55318E-1,-.1831075E-1,0
STARLINK-34439,2025-130W,2025-07-28T20:18:49.717728,15.39631474,.000115,53.1605,53.8034,81.4500,278.6636,0,U,64458,999,756,.69467E-3,.27497E-3,0
STARLINK-34421,2025-130X,2025-07-28T20:12:08.680032,15.39635748,.0001063,53.1608,53.7752,87.0466,273.0661,0,U,64459,999,756,.85843E-3,.34108E-3,0
STARLINK-34423,2025-130Y,2025-07-28T20:05:27.443616,15.39625511,.0000995,53.1611,53.7450,62.6840,297.4266,0,U,64460,999,758,.12918E-2,.51631E-3,0
STARLINK-34418,2025-130Z,2025-07-28T19:58:46.313472,15.39638742,.0001017,53.1612,53.7154,74.5066,285.6051,0,U,64461,999,756,.11045E-2,.44062E-3,0
STARLINK-34336,2025-130AA,2025-07-29T06:00:02.000160,15.36781513,.0001618,53.1599,48.9915,80.6312,358.9185,0,U,64462,999,769,-.48818E-1,-.1596085E-1,0
STARLINK-34400,2025-130AB,2025-07-28T20:34:30.504864,15.49337841,.0000352,53.1604,53.1567,307.3263,52.7714,0,U,64463,999,758,.54885E-3,.30226E-3,0
STARLINK-34429,2025-130AC,2025-07-29T06:00:02.000160,15.39608542,.0001238,53.1603,51.5940,85.1271,147.8495,0,U,64464,999,763,-.82615E-4,-.3701E-4,0
STARLINK-34449,2025-130AD,2025-07-29T06:00:02.000160,15.44408018,.000116,53.1602,51.3093,97.3837,278.4781,0,U,64465,999,764,-.38062E-1,-.1604381E-1,0
STARLINK-34493,2025-133A,2025-07-28T23:09:46.634112,15.39631583,.0000805,53.1589,83.9065,83.2982,276.8115,0,U,64472,999,682,.15433E-2,.61857E-3,0
STARLINK-34492,2025-133B,2025-07-29T00:37:02.952768,15.39625004,.0000956,53.1586,83.5737,95.7202,264.3912,0,U,64473,999,683,.10685E-2,.42585E-3,0
STARLINK-34474,2025-133C,2025-07-28T23:03:05.560992,15.39634378,.0001141,53.1587,83.8749,91.0478,269.0658,0,U,64474,999,680,.471E-3,.18495E-3,0
STARLINK-34523,2025-133D,2025-07-29T02:03:50.470848,15.39641460,.0001166,53.1586,83.2375,79.0773,281.0363,0,U,64475,999,682,.13472E-2,.53907E-3,0
STARLINK-34496,2025-133E,2025-07-29T02:03:21.358368,15.39645710,.0000654,53.1578,83.2362,357.1694,2.9307,0,U,64476,999,684,.68036E-3,.26933E-3,0
STARLINK-34375,2025-133F,2025-07-29T01:57:09.200736,15.39645144,.000119,53.1589,83.2074,62.5193,297.5933,0,U,64477,999,683,.83735E-3,.33268E-3,0
STARLINK-34490,2025-133G,2025-07-28T19:36:34.814304,15.39663275,.000075,53.1582,84.4007,122.4129,237.6948,0,U,64478,999,679,.14288E-2,.57263E-3,0
STARLINK-34528,2025-133H,2025-07-29T01:56:40.089120,15.39638719,.0001004,53.1585,83.2050,90.8170,269.2950,0,U,64479,999,681,.13266E-2,.53066E-3,0
STARLINK-34518,2025-133J,2025-07-29T01:50:31.030656,15.37452856,.0008464,53.1581,83.1788,160.9825,199.1497,0,U,64480,999,667,-.45109E-1,-.1519737E-1,0
STARLINK-34526,2025-133K,2025-07-28T19:29:52.419264,15.39637264,.0001012,53.1593,84.3680,69.6400,290.4713,0,U,64481,999,668,.71439E-3,.28298E-3,0
STARLINK-34527,2025-133L,2025-07-28T22:36:20.473632,15.39641456,.0000979,53.1583,83.7553,72.3275,287.7837,0,U,64482,999,681,.78569E-3,.31178E-3,0
STARLINK-34420,2025-133M,2025-07-28T22:30:08.300448,15.39631900,.0001134,53.1585,83.7279,75.3246,284.7884,0,U,64483,999,681,.11287E-2,.45032E-3,0
STARLINK-34509,2025-133N,2025-07-28T22:29:39.289920,15.39643290,.0000987,53.1583,83.7262,82.6084,277.5033,0,U,64484,999,681,.74643E-3,.29596E-3,0
STARLINK-34409,2025-133P,2025-07-28T19:16:30.757728,15.39646311,.0000729,53.1588,84.3114,95.4597,264.6491,0,U,64485,999,679,.10309E-2,.41094E-3,0
STARLINK-34520,2025-133Q,2025-07-28T22:22:58.132992,15.39627736,.0001165,53.1589,83.6969,71.0457,289.0674,0,U,64486,999,681,.55419E-3,.21837E-3,0
STARLINK-34477,2025-133R,2025-07-28T22:16:46.082496,15.39627344,.0001109,53.1591,83.6690,81.0895,279.0236,0,U,64487,999,681,.14143E-2,.56606E-3,0
STARLINK-34217,2025-133S,2025-07-29T01:23:14.138592,15.39643718,.0000958,53.1589,83.0538,77.2222,282.8890,0,U,64488,999,672,.12345E-2,.49338E-3,0
